{
"type": "FeatureCollection",
"crs": { "type": "name", "properties": { "name": "urn:ogc:def:crs:OGC:1.3:CRS84" } },
"features": [
{ "type": "Feature", "properties": { "region_id": "RAL-01", "parent_city": "Raleigh", "display_name": "Downtown Raleigh", "geometry_source": "City of Raleigh Municipal_Service_Districts", "source_authority": "City of Raleigh", "source_query_or_filter": "Name = 'Downtown'", "retrieved_at_utc": "2026-10-10T12:57:32Z", "original_crs": "EPSG:4326", "final_crs": "EPSG:4326", "review_required": false, "geometry_valid": true, "notes": "Downtown municipal service district, not police district or older downtown boundary.", "source_matched_names": null, "ncsu_precinct_name": null, "osm_display_name": null, "osm_type": null, "osm_id": null, "osm_name": null }, "geometry": { "type": "Polygon", "coordinates": [ [ [ -78.642474321955405, 35.789816141855802 ], [ -78.642215507081602, 35.789800785704799 ], [ -78.642200269382997, 35.790001094984802 ], [ -78.641976766857397, 35.789997052071598 ], [ -78.641978806957695, 35.790023511687103 ], [ -78.641192736036601, 35.790037367661697 ], [ -78.640873615923098, 35.791047483102602 ], [ -78.640826946579693, 35.7911919043542 ], [ -78.640172907960604, 35.7911615136615 ], [ -78.640128586968899, 35.791932017522598 ], [ -78.639940826969394, 35.792413042066102 ], [ -78.639733526999194, 35.792405612417099 ], [ -78.639676241904596, 35.792403559209603 ], [ -78.639363224141107, 35.792392338854803 ], [ -78.6393499947241, 35.792292663110999 ], [ -78.638326595525101, 35.792280274522099 ], [ -78.638391892571505, 35.791240296818103 ], [ -78.636634090852894, 35.791151964887703 ], [ -78.636456437132594, 35.791217174643101 ], [ -78.635768493648897, 35.791242475913897 ], [ -78.635859527139303, 35.790108595329002 ], [ -78.636019990868903, 35.787844184273503 ], [ -78.635728217283997, 35.787816605338001 ], [ -78.635201765393703, 35.787767192070604 ], [ -78.635195343709896, 35.787849107129297 ], [ -78.635163885203497, 35.788268327846303 ], [ -78.635201344907898, 35.788271508198797 ], [ -78.635186349377605, 35.788595590481599 ], [ -78.634987872580595, 35.788578466219398 ], [ -78.634964042671299, 35.788966776310502 ], [ -78.634698383299806, 35.7889445063891 ], [ -78.634689877416307, 35.789082625851599 ], [ -78.634679088940004, 35.789293076971397 ], [ -78.635144436707193, 35.789325220839402 ], [ -78.635135355713402, 35.789501233921499 ], [ -78.635442230648195, 35.7895294335881 ], [ -78.6354275804038, 35.789720135488601 ], [ -78.635130980018999, 35.789692117984799 ], [ -78.635131079209799, 35.7896838628456 ], [ -78.634855887259704, 35.789663490009602 ], [ -78.634826270191695, 35.7899666233467 ], [ -78.634809643550795, 35.790103214984498 ], [ -78.635291614549502, 35.790148824638003 ], [ -78.635257318809494, 35.790650792807803 ], [ -78.634885646844495, 35.790631993375598 ], [ -78.634886579728899, 35.7906120782133 ], [ -78.6343724576016, 35.790589760440703 ], [ -78.634092495871101, 35.7906102106978 ], [ -78.633910967313099, 35.790604980200698 ], [ -78.633254680623395, 35.790585713274098 ], [ -78.633274960403398, 35.790017082184001 ], [ -78.634172592707301, 35.790048111800701 ], [ -78.634177273512407, 35.789911101304803 ], [ -78.634225254647802, 35.789188218168299 ], [ -78.633945997726201, 35.789177927954597 ], [ -78.633955578400503, 35.789033599689198 ], [ -78.633871851815002, 35.789030587289503 ], [ -78.633901048208202, 35.788586967933597 ], [ -78.633934173247894, 35.788588298704298 ], [ -78.633941576705595, 35.788464763360899 ], [ -78.633907898689799, 35.7884634111008 ], [ -78.633933303150002, 35.788015000415903 ], [ -78.633767883629105, 35.788008626502098 ], [ -78.633782864849294, 35.7876197914633 ], [ -78.634017102224703, 35.787628189218502 ], [ -78.634180425898904, 35.787634046341402 ], [ -78.634309139965694, 35.787638661868598 ], [ -78.634420974132695, 35.787677999697401 ], [ -78.6344337024791, 35.787394323420799 ], [ -78.634436844219707, 35.787342179973301 ], [ -78.634512287668002, 35.786014410919996 ], [ -78.634521508524898, 35.7860145314202 ], [ -78.634521799668605, 35.7860059163079 ], [ -78.635110952098401, 35.786022228192103 ], [ -78.635301522786705, 35.786024716868802 ], [ -78.636138405493895, 35.786035639532898 ], [ -78.636220284611795, 35.784534171287603 ], [ -78.636393379690702, 35.7815629598567 ], [ -78.636526811467405, 35.7815661972786 ], [ -78.636866005950594, 35.781579675367098 ], [ -78.636886938750294, 35.781234949120702 ], [ -78.636891667840501, 35.7811343419813 ], [ -78.635593909333807, 35.781088888676102 ], [ -78.635598186594507, 35.7810027486873 ], [ -78.6356332252941, 35.780291731046901 ], [ -78.635343289568894, 35.7802831020051 ], [ -78.634834414720501, 35.780261874222397 ], [ -78.634772918133393, 35.781064925754599 ], [ -78.634761644873294, 35.781064551247297 ], [ -78.634758709161005, 35.781362937778702 ], [ -78.634438750214599, 35.781354231004897 ], [ -78.634366110769903, 35.781398937170202 ], [ -78.634360087850595, 35.781489465046 ], [ -78.634326135633103, 35.781488481619903 ], [ -78.6343137240153, 35.7814881225828 ], [ -78.634322257792903, 35.781354319447999 ], [ -78.634336482696398, 35.781050446942601 ], [ -78.633455919065995, 35.781021236143602 ], [ -78.633459271208494, 35.780934217325999 ], [ -78.633473519925602, 35.780766158499901 ], [ -78.633488598223195, 35.780601021630403 ], [ -78.633513037933795, 35.780601610727103 ], [ -78.633519204125605, 35.780356600970599 ], [ -78.633533919038996, 35.7802250031067 ], [ -78.633194223804495, 35.780211598935203 ], [ -78.633300853679401, 35.778080534355198 ], [ -78.633301615664493, 35.778065432720197 ], [ -78.633299797498196, 35.778065128900302 ], [ -78.632358845488596, 35.778050813251099 ], [ -78.632449171879003, 35.776685433237702 ], [ -78.633369614619795, 35.776720210277198 ], [ -78.6334390416377, 35.775407657377997 ], [ -78.633458659141894, 35.775408332030601 ], [ -78.633460333517803, 35.775380305948303 ], [ -78.635190009504299, 35.775438897812798 ], [ -78.635193862157195, 35.775376551175803 ], [ -78.635329707847802, 35.772867572824197 ], [ -78.635683735126406, 35.772879103163397 ], [ -78.635621349472999, 35.774028035401898 ], [ -78.635682890417598, 35.774211431779001 ], [ -78.635670685918697, 35.774488531995203 ], [ -78.635953838498693, 35.774496418983702 ], [ -78.635948186101601, 35.774666353689099 ], [ -78.636118238710395, 35.774672396077897 ], [ -78.636133722673407, 35.774228233840198 ], [ -78.636306469534603, 35.7742345868716 ], [ -78.636778546965502, 35.774254869700798 ], [ -78.636789926203804, 35.774036073527803 ], [ -78.636810662924603, 35.773637344990803 ], [ -78.636849797103594, 35.772884841108798 ], [ -78.636903170831303, 35.7718585072586 ], [ -78.636892190635706, 35.771858177082002 ], [ -78.636809362080299, 35.7718596075661 ], [ -78.636088353191496, 35.771833953827297 ], [ -78.636081245696602, 35.771971196803797 ], [ -78.636073418427699, 35.771970939968902 ], [ -78.636064048524602, 35.772056920793901 ], [ -78.6352506632238, 35.772014303850298 ], [ -78.635435097531897, 35.769382849908297 ], [ -78.636917453743905, 35.769387277522398 ], [ -78.638245146563804, 35.769391227861099 ], [ -78.638763217049899, 35.769392766273398 ], [ -78.640662370173601, 35.769197466735498 ], [ -78.642768887662996, 35.768955835025402 ], [ -78.644517600016499, 35.769394045575297 ], [ -78.646373905087202, 35.769859184579097 ], [ -78.646674393033194, 35.769934475822701 ], [ -78.647334929791, 35.770099978261896 ], [ -78.647968605083804, 35.770258746594401 ], [ -78.648196931858493, 35.770315953483298 ], [ -78.648054698478504, 35.770628087366603 ], [ -78.648006186268503, 35.771191049739201 ], [ -78.648159275784096, 35.771255412297101 ], [ -78.649035059329606, 35.771289257160198 ], [ -78.649008621685297, 35.7718344384311 ], [ -78.649540068666695, 35.771853563888499 ], [ -78.649529356943603, 35.772074896024499 ], [ -78.649514221239997, 35.772387581816403 ], [ -78.649320888250699, 35.772556872468002 ], [ -78.649307766960305, 35.772862132344699 ], [ -78.648752417955293, 35.772849027411397 ], [ -78.648600728223698, 35.772845842600198 ], [ -78.648078247743996, 35.772833172820498 ], [ -78.647871679631393, 35.772821180977203 ], [ -78.646985434181701, 35.772790215169699 ], [ -78.646965425058397, 35.773181771850901 ], [ -78.646945732847996, 35.773558450792599 ], [ -78.647676923126099, 35.773579918922302 ], [ -78.647617394602193, 35.773770394234397 ], [ -78.647494025254403, 35.774166337051099 ], [ -78.647428202150905, 35.774387835649399 ], [ -78.647381791458699, 35.774551651651699 ], [ -78.648470431943807, 35.774596548640297 ], [ -78.648852687621698, 35.774615149061198 ], [ -78.648785965345894, 35.775024661230198 ], [ -78.649103777270895, 35.7750429939151 ], [ -78.648986405953906, 35.775457798076403 ], [ -78.6489340519812, 35.775655671236898 ], [ -78.648902535822302, 35.7757542395371 ], [ -78.648865633695905, 35.775905141839402 ], [ -78.648852625325304, 35.776013141116401 ], [ -78.648875209210999, 35.776017216322103 ], [ -78.648895038505103, 35.776168443470397 ], [ -78.648914769140603, 35.776260865321198 ], [ -78.648963389350598, 35.776476959976598 ], [ -78.649072941294705, 35.776481054077003 ], [ -78.649028951550804, 35.776520247853703 ], [ -78.649058711737993, 35.776570754228402 ], [ -78.649127688370598, 35.776687782341597 ], [ -78.649161138043198, 35.776744534856 ], [ -78.649451460969999, 35.776658127145502 ], [ -78.6496200754396, 35.7766079437326 ], [ -78.649700620420305, 35.776580385841797 ], [ -78.649753104954499, 35.776561802187999 ], [ -78.649890040495606, 35.7766136611205 ], [ -78.650256700500407, 35.776751424856002 ], [ -78.649793610436205, 35.777149548507502 ], [ -78.6497927741772, 35.777154926262398 ], [ -78.649777627389795, 35.777155172050797 ], [ -78.649686144500606, 35.777271944815602 ], [ -78.649433336915706, 35.777722400041597 ], [ -78.649289214002707, 35.778197771772398 ], [ -78.649220694974801, 35.778611801503097 ], [ -78.649102561403495, 35.779934384608701 ], [ -78.649099528286797, 35.779939764138497 ], [ -78.649103460289197, 35.779939831347797 ], [ -78.6490876553937, 35.780668182356102 ], [ -78.649114286812804, 35.780746727813103 ], [ -78.6491831851678, 35.780820411425402 ], [ -78.649188667327905, 35.780862213754702 ], [ -78.649188829041194, 35.780863439153698 ], [ -78.649308752655202, 35.780863439213199 ], [ -78.650554470527993, 35.7809211871907 ], [ -78.650652778479596, 35.782552080237501 ], [ -78.650683647976706, 35.782961727968399 ], [ -78.650692660898898, 35.783433861131499 ], [ -78.650702233936499, 35.7839353878867 ], [ -78.650708592676494, 35.784322110566798 ], [ -78.650761262536193, 35.785899380364398 ], [ -78.650787640592299, 35.786386107881 ], [ -78.650831978630606, 35.786900744724598 ], [ -78.650869166593296, 35.787453300474503 ], [ -78.650978055128704, 35.788554435517199 ], [ -78.651139008998697, 35.789310481825403 ], [ -78.650546387682397, 35.789319372543801 ], [ -78.650503785581506, 35.7891483712677 ], [ -78.6500369364622, 35.789159125470498 ], [ -78.649949220550297, 35.789009273387201 ], [ -78.648813765588599, 35.789004116612197 ], [ -78.648315565923895, 35.789005426883897 ], [ -78.647304843396995, 35.789006627103198 ], [ -78.6469816726011, 35.788801723604998 ], [ -78.6469240871387, 35.788802375163101 ], [ -78.646923866336095, 35.788789601537999 ], [ -78.646642987136104, 35.788792824379101 ], [ -78.646643911942405, 35.788648493495302 ], [ -78.646511772455497, 35.788649798411399 ], [ -78.645984954668606, 35.7886537363784 ], [ -78.645835149493294, 35.788654780116801 ], [ -78.6457398248142, 35.789011468766802 ], [ -78.645661952486805, 35.7893136738831 ], [ -78.645236069992194, 35.790343076540402 ], [ -78.644759599434295, 35.790215605219302 ], [ -78.644537787208606, 35.790730719494498 ], [ -78.645018035375003, 35.7908523267836 ], [ -78.644917601865501, 35.791083626922898 ], [ -78.644681431455496, 35.791645186391399 ], [ -78.644394181439495, 35.792328193198898 ], [ -78.644084320474306, 35.793064946179399 ], [ -78.643797239259797, 35.793747525444502 ], [ -78.6434155338398, 35.794655065959901 ], [ -78.642828455761205, 35.796050861080403 ], [ -78.642699588616395, 35.796357237009502 ], [ -78.642548515973402, 35.796716404283003 ], [ -78.641425397992094, 35.796176592494703 ], [ -78.641202798951198, 35.7959096962012 ], [ -78.641139596403306, 35.795228790939902 ], [ -78.641712632494404, 35.793743464021802 ], [ -78.641993352495305, 35.792710693606502 ], [ -78.642257576553206, 35.7917385875486 ], [ -78.642468938404704, 35.790960949617997 ], [ -78.642544097774305, 35.790643364443198 ], [ -78.642636068304597, 35.790254733895402 ], [ -78.642701563049997, 35.789977982752497 ], [ -78.642735466889505, 35.789834715787102 ], [ -78.642474321955405, 35.789816141855802 ] ] ] } },
{ "type": "Feature", "properties": { "region_id": "RAL-02", "parent_city": "Raleigh", "display_name": "Dorothea Dix Park", "geometry_source": "City of Raleigh Developed_Parks", "source_authority": "City of Raleigh", "source_query_or_filter": "NAME contains 'Dix', selected NAME = 'Dix Park'", "retrieved_at_utc": "2026-10-10T12:57:32Z", "original_crs": "EPSG:4326", "final_crs": "EPSG:4326", "review_required": false, "geometry_valid": true, "notes": "Dissolved all polygons for selected park name without convex hull or simplification.", "source_matched_names": "Dix Park; Dixon", "ncsu_precinct_name": null, "osm_display_name": null, "osm_type": null, "osm_id": null, "osm_name": null }, "geometry": { "type": "MultiPolygon", "coordinates": [ [ [ [ -78.654955546036405, 35.772563445184304 ], [ -78.654634564474904, 35.772359726991198 ], [ -78.654310984679995, 35.7721587586963 ], [ -78.6533486901521, 35.771567550492897 ], [ -78.653148574920394, 35.771444606122301 ], [ -78.6530158391068, 35.771363055959696 ], [ -78.652896370211593, 35.771309595323899 ], [ -78.652819464014996, 35.771262344519201 ], [ -78.652574167371199, 35.771122459292499 ], [ -78.652611737368005, 35.771034123999698 ], [ -78.652622779495701, 35.771008169516598 ], [ -78.652325080540507, 35.7708283315228 ], [ -78.652189330232702, 35.770746326565799 ], [ -78.652180229603701, 35.7707459102946 ], [ -78.6520051459473, 35.770737892051699 ], [ -78.651831208085994, 35.770730144533601 ], [ -78.651714081923501, 35.770724559320001 ], [ -78.651560715225102, 35.770679966178598 ], [ -78.651404917267598, 35.770641377001603 ], [ -78.650724320758101, 35.770527815647 ], [ -78.650040283541699, 35.770434110000402 ], [ -78.6496349345271, 35.770375842291998 ], [ -78.649230789235702, 35.770312259621903 ], [ -78.648827953844403, 35.770243379433303 ], [ -78.648426533426999, 35.770169218266197 ], [ -78.649047286949894, 35.769111018878398 ], [ -78.6499393239108, 35.7685062129393 ], [ -78.652155488117202, 35.767054124343602 ], [ -78.654433239732001, 35.765518604345097 ], [ -78.657371231506104, 35.763537042852697 ], [ -78.657676355410501, 35.763325837474802 ], [ -78.657701775151494, 35.763349492841698 ], [ -78.658054716828801, 35.763116518884203 ], [ -78.658185933236695, 35.7631379257041 ], [ -78.658337639902797, 35.763030206910003 ], [ -78.659239598877093, 35.762405798703497 ], [ -78.659554673198102, 35.763404914022402 ], [ -78.659619821984506, 35.7636246830196 ], [ -78.659677116386007, 35.763845901028603 ], [ -78.6597265084702, 35.764068380445003 ], [ -78.659767955824606, 35.764291935480898 ], [ -78.659801423795997, 35.764516375862101 ], [ -78.659826885459296, 35.764741514038398 ], [ -78.659844317218003, 35.764967159763302 ], [ -78.659853704321904, 35.765193122813699 ], [ -78.659855040867896, 35.765419212989499 ], [ -78.659848324273895, 35.765645239197099 ], [ -78.659668942021796, 35.769417433402197 ], [ -78.659655604257395, 35.769606358285699 ], [ -78.659633591093296, 35.769794743341699 ], [ -78.659602933445598, 35.769982323655 ], [ -78.659563675492393, 35.770168837048999 ], [ -78.659515870264599, 35.770354020469703 ], [ -78.659459586263907, 35.770537614509301 ], [ -78.659394901944296, 35.770719360688197 ], [ -78.6593219079096, 35.770899005065402 ], [ -78.659240706928401, 35.771076294634398 ], [ -78.659151412817806, 35.771250980023403 ], [ -78.659054150435196, 35.771422817298202 ], [ -78.658949057910505, 35.771591563462302 ], [ -78.658836281085499, 35.771756983651699 ], [ -78.658715977968697, 35.7719188439372 ], [ -78.658588319814797, 35.772076917636397 ], [ -78.658453482288394, 35.772230982585597 ], [ -78.658311658728493, 35.772380822979798 ], [ -78.658163044672193, 35.772526227526399 ], [ -78.658007851112004, 35.772666993088102 ], [ -78.657846294552698, 35.772802921951403 ], [ -78.657678601431698, 35.7729338227401 ], [ -78.657505009221794, 35.773059511320298 ], [ -78.656969411765701, 35.773432913092897 ], [ -78.656840975527601, 35.773359765448802 ], [ -78.656063286540501, 35.773901933155003 ], [ -78.656039514236795, 35.773843927197198 ], [ -78.656027137741802, 35.773809810369102 ], [ -78.655892472322506, 35.773480318853402 ], [ -78.655840599545499, 35.773384504713 ], [ -78.655782106276902, 35.773291257815501 ], [ -78.6557171814854, 35.773200880638399 ], [ -78.655646038499498, 35.773113668516402 ], [ -78.655568908394699, 35.7730299042151 ], [ -78.655486041083407, 35.772949861539701 ], [ -78.654955546036405, 35.772563445184304 ] ] ], [ [ [ -78.659777853033503, 35.775589677668101 ], [ -78.659735894738105, 35.775632686480897 ], [ -78.659377343963598, 35.775417567769701 ], [ -78.658990801987201, 35.775236225251099 ], [ -78.658545305641894, 35.775076014263902 ], [ -78.658544743591094, 35.775082343774102 ], [ -78.658098655594401, 35.774956278949396 ], [ -78.657040729776696, 35.774689024576602 ], [ -78.656348498940702, 35.774313248418103 ], [ -78.656308943949099, 35.7742716674775 ], [ -78.657268359511505, 35.773602802943103 ], [ -78.657139922733293, 35.773529655618198 ], [ -78.657635737956298, 35.773183987643399 ], [ -78.657807326839801, 35.773059952641503 ], [ -78.657973350569506, 35.772930986701098 ], [ -78.658133597191096, 35.772797255098098 ], [ -78.658287859156204, 35.772658928528998 ], [ -78.6584359388374, 35.772516186732297 ], [ -78.658577646346401, 35.772369211270401 ], [ -78.658712800609806, 35.772218192743999 ], [ -78.658841226081094, 35.772063323571999 ], [ -78.658962759353997, 35.771904803417499 ], [ -78.659077243647502, 35.771742835567103 ], [ -78.659184532115901, 35.771577628742698 ], [ -78.659284486754402, 35.771409394394396 ], [ -78.659376978390796, 35.771238348502699 ], [ -78.659461891106005, 35.771064712492503 ], [ -78.659539112302298, 35.770888707796999 ], [ -78.659608545955805, 35.770710560401099 ], [ -78.659670100454605, 35.770530499906499 ], [ -78.659723698559702, 35.770348757756203 ], [ -78.659769270772301, 35.770165566314901 ], [ -78.659806757530703, 35.769981162480597 ], [ -78.659836112550593, 35.7697957822852 ], [ -78.659857297286806, 35.769609662682299 ], [ -78.659870285342294, 35.769423045164402 ], [ -78.660019613535397, 35.766282698246599 ], [ -78.660600154673901, 35.766301032881898 ], [ -78.661982205463602, 35.7660853984423 ], [ -78.662408174080795, 35.766062576786297 ], [ -78.662682052258205, 35.765913014225802 ], [ -78.662794162205302, 35.766043859492399 ], [ -78.662999609717104, 35.766218746147302 ], [ -78.663097341430202, 35.766338891938098 ], [ -78.663409496706706, 35.766861967210403 ], [ -78.663602034619402, 35.767156521256602 ], [ -78.663874762789803, 35.767575881225802 ], [ -78.664024979590295, 35.767798075237501 ], [ -78.664496090407496, 35.768444534738897 ], [ -78.6646849754908, 35.768863915008502 ], [ -78.664873394354899, 35.769160293345799 ], [ -78.665118808931894, 35.770028308560498 ], [ -78.665207041966497, 35.770276298433899 ], [ -78.6650170659465, 35.770349459830598 ], [ -78.665757594403701, 35.771958532405897 ], [ -78.665915143645293, 35.772196119100499 ], [ -78.666306353436795, 35.772707402948797 ], [ -78.666431855324404, 35.773148796584003 ], [ -78.665879144103002, 35.773031280664704 ], [ -78.665862452187, 35.773081534762497 ], [ -78.665231283819395, 35.772942017714797 ], [ -78.6651323726106, 35.773591774798703 ], [ -78.665356859786499, 35.774650277987703 ], [ -78.663562718507094, 35.774586116416899 ], [ -78.663293219462403, 35.7761934644289 ], [ -78.663279040771698, 35.776605050118299 ], [ -78.663278502504497, 35.776613724123003 ], [ -78.663248327606794, 35.777100718424101 ], [ -78.663209175651303, 35.777725769168001 ], [ -78.662497208179701, 35.777351389928 ], [ -78.659777853033503, 35.775589677668101 ] ] ] ] } },
{ "type": "Feature", "properties": { "region_id": "RAL-03A", "parent_city": "Raleigh", "display_name": "NC State Central Campus", "geometry_source": "NC State Facilities Campus Perimeters shapefile", "source_authority": "NC State Facilities", "source_query_or_filter": "Precinct_N = 'Central Campus'", "retrieved_at_utc": "2026-10-10T12:57:32Z", "original_crs": "PROJCS[\"NAD83 / North Carolina (ftUS)\",GEOGCS[\"NAD83\",DATUM[\"North_American_Datum_1983\",SPHEROID[\"GRS 1980\",6378137,298.257222101,AUTHORITY[\"EPSG\",\"7019\"]],AUTHORITY[\"EPSG\",\"6269\"]],PRIMEM[\"Greenwich\",0],UNIT[\"Degree\",0.0174532925199433]],PROJECTION[\"Lambert_Conformal_Conic_2SP\"],PARAMETER[\"latitude_of_origin\",33.75],PARAMETER[\"central_meridian\",-79],PARAMETER[\"standard_parallel_1\",34.3333333333333],PARAMETER[\"standard_parallel_2\",36.1666666666667],PARAMETER[\"false_easting\",2000000.00261667],PARAMETER[\"false_northing\",0],UNIT[\"US survey foot\",0.304800609601219,AUTHORITY[\"EPSG\",\"9003\"]],AXIS[\"Easting\",EAST],AXIS[\"Northing\",NORTH]]", "final_crs": "EPSG:4326", "review_required": false, "geometry_valid": true, "notes": "Official NC State campus perimeter precinct record dissolved if multipart.", "source_matched_names": null, "ncsu_precinct_name": "Central Campus", "osm_display_name": null, "osm_type": null, "osm_id": null, "osm_name": null }, "geometry": { "type": "MultiPolygon", "coordinates": [ [ [ [ -78.682268973219252, 35.789213287996589 ], [ -78.681998951926516, 35.789073939481106 ], [ -78.681978578772757, 35.789063626289582 ], [ -78.6819236635951, 35.789035964860908 ], [ -78.681871702213385, 35.789009975003523 ], [ -78.68156198149623, 35.788858734044801 ], [ -78.68124893606128, 35.78871210839408 ], [ -78.680932668557446, 35.788570147869343 ], [ -78.680613283857582, 35.788432898689763 ], [ -78.680290887938426, 35.788300407078303 ], [ -78.679965587894486, 35.78817271565638 ], [ -78.679643733136928, 35.788052150344704 ], [ -78.679603160841168, 35.788037307554283 ], [ -78.675981319495278, 35.786712273154393 ], [ -78.675087543590038, 35.786385266658563 ], [ -78.675058367953753, 35.786374591717731 ], [ -78.674895665839088, 35.786315062689127 ], [ -78.67489149047924, 35.786313535482627 ], [ -78.674728550021769, 35.786253918162366 ], [ -78.673606852992265, 35.785843503318375 ], [ -78.673591463994896, 35.785837872839288 ], [ -78.673497150656686, 35.785803364443147 ], [ -78.672994010952451, 35.785619266981207 ], [ -78.672451962930737, 35.78542092880523 ], [ -78.671902976494465, 35.785220049346449 ], [ -78.671892210325709, 35.785216110309548 ], [ -78.671891527709732, 35.78521585969947 ], [ -78.671811082482833, 35.785186424061393 ], [ -78.671542610360788, 35.785088185637875 ], [ -78.671526458402525, 35.785082275223964 ], [ -78.669356395777058, 35.784288183381676 ], [ -78.669349076013347, 35.784285504541522 ], [ -78.668712451639834, 35.784052534413746 ], [ -78.668707839122249, 35.784050846266346 ], [ -78.66868585676508, 35.784042801451754 ], [ -78.668682775126911, 35.784041673597905 ], [ -78.667507340563731, 35.783611514765873 ], [ -78.667494993155415, 35.783606995961989 ], [ -78.667294202990291, 35.783533513449164 ], [ -78.667283366583334, 35.783529547670675 ], [ -78.667130373550677, 35.78347355716663 ], [ -78.667052976934116, 35.783445232643551 ], [ -78.666885221314132, 35.783383838465454 ], [ -78.666867720319615, 35.783377434308377 ], [ -78.666584159359076, 35.783273658005129 ], [ -78.666541546305695, 35.783258062533285 ], [ -78.666301206600124, 35.783170104433829 ], [ -78.666281798221021, 35.783163000929669 ], [ -78.665432069683519, 35.782852014636227 ], [ -78.665893994064149, 35.782048811314034 ], [ -78.665966340677016, 35.782029396368948 ], [ -78.666041625152261, 35.782009191741388 ], [ -78.666589885980599, 35.781862053938617 ], [ -78.668016000358364, 35.781970494983398 ], [ -78.668228554617485, 35.781910206894899 ], [ -78.668359996462755, 35.781425501637479 ], [ -78.668272761988803, 35.781058712878156 ], [ -78.66801277763625, 35.780995226665624 ], [ -78.667473560735033, 35.78115355967558 ], [ -78.667263991679818, 35.780570218924353 ], [ -78.667294498272526, 35.78012637461179 ], [ -78.667299622103911, 35.78005182274574 ], [ -78.667673082642665, 35.779840268953805 ], [ -78.667930968944759, 35.779705211054925 ], [ -78.667936624563097, 35.779702248415191 ], [ -78.667980006964257, 35.779687934264601 ], [ -78.668151847296841, 35.779631232643254 ], [ -78.668582463767621, 35.779653180977078 ], [ -78.66958780381897, 35.77970295953547 ], [ -78.670178542587479, 35.779730659773072 ], [ -78.670679900905029, 35.779767388631868 ], [ -78.671177783838957, 35.779829516861653 ], [ -78.6712813702284, 35.779851088970723 ], [ -78.671676379490506, 35.779924443241306 ], [ -78.673255800753552, 35.780371522104168 ], [ -78.674837368881754, 35.780813606160031 ], [ -78.67503010958589, 35.780867843501476 ], [ -78.675293435641166, 35.780941942415488 ], [ -78.675451135170505, 35.780986318677662 ], [ -78.675568990071639, 35.781019482221204 ], [ -78.675653619688504, 35.781043295845251 ], [ -78.675837520453413, 35.781116481741229 ], [ -78.676339899345678, 35.781316417773745 ], [ -78.676474531222127, 35.781374124543063 ], [ -78.676663305089519, 35.781458347408517 ], [ -78.676714892432329, 35.781481363227329 ], [ -78.677193496728151, 35.781694892537246 ], [ -78.67787377247231, 35.781997010519568 ], [ -78.678409733261603, 35.782238814095827 ], [ -78.679746012746733, 35.782804331522101 ], [ -78.680460007794835, 35.78311012802542 ], [ -78.681443712742592, 35.783529436633017 ], [ -78.682086769887235, 35.783804593191839 ], [ -78.682602542841735, 35.784025283489598 ], [ -78.682783374970015, 35.784102656484649 ], [ -78.683271862663361, 35.784313580687765 ], [ -78.68380327126799, 35.784541960732426 ], [ -78.684013269479465, 35.784634878290959 ], [ -78.684226156203522, 35.784723324178728 ], [ -78.684441790058258, 35.784807237624577 ], [ -78.68466002300508, 35.784886562347786 ], [ -78.684685260666342, 35.784898819282773 ], [ -78.684843979593637, 35.78496052964401 ], [ -78.685006106749739, 35.785016044640344 ], [ -78.68517127975538, 35.785065239837728 ], [ -78.685339127325861, 35.785108004300895 ], [ -78.685509273685668, 35.785144243309105 ], [ -78.685681334157948, 35.785173874739471 ], [ -78.685854925110377, 35.785196831796675 ], [ -78.685978468929605, 35.785211364528138 ], [ -78.686102724058628, 35.785221056933665 ], [ -78.686227407371135, 35.785225887551064 ], [ -78.686352232383442, 35.785225844825433 ], [ -78.686476910353932, 35.785220928914633 ], [ -78.686562908723303, 35.78521548342875 ], [ -78.686620247464049, 35.785210650992177 ], [ -78.686777357749719, 35.785190970313472 ], [ -78.686934804706738, 35.78517317050607 ], [ -78.686959688682677, 35.785168597920794 ], [ -78.686954270776752, 35.785588407707884 ], [ -78.686938137440791, 35.786598859131047 ], [ -78.686919959495583, 35.787375787009324 ], [ -78.686912019099807, 35.787575804972548 ], [ -78.686901595603757, 35.787682831917721 ], [ -78.686883552725078, 35.787789183998449 ], [ -78.68685795266893, 35.787894501734534 ], [ -78.686824879752464, 35.787998429306533 ], [ -78.686784448152181, 35.788100613674658 ], [ -78.686736793033802, 35.788200709964038 ], [ -78.686680488479311, 35.788291850753296 ], [ -78.68661969882983, 35.788381058309383 ], [ -78.686554523099133, 35.788468185961101 ], [ -78.686485068032141, 35.788553090662411 ], [ -78.68615909542163, 35.788920982812023 ], [ -78.685970483456188, 35.788915690846366 ], [ -78.685892065966982, 35.788995952704276 ], [ -78.685863671352237, 35.789265514238139 ], [ -78.685733388852825, 35.789417496590453 ], [ -78.68558142748752, 35.789595114796704 ], [ -78.685513215298883, 35.78968107399465 ], [ -78.685393205236366, 35.789583659549933 ], [ -78.6852683014109, 35.789489930561039 ], [ -78.685248728670217, 35.789462276302189 ], [ -78.684769341081449, 35.790669216958321 ], [ -78.684214229859663, 35.790338214422981 ], [ -78.683236038286054, 35.789754924131273 ], [ -78.683194058238726, 35.789729960387838 ], [ -78.683134284679994, 35.789694653387699 ], [ -78.683062025727068, 35.789652332961353 ], [ -78.682800578540963, 35.789502522302705 ], [ -78.682536204899321, 35.789356161008534 ], [ -78.682268973219252, 35.789213287996589 ] ] ], [ [ [ -78.696970076496399, 35.787044297070864 ], [ -78.697137736105859, 35.787046352609671 ], [ -78.697247649890556, 35.787046861942088 ], [ -78.697291352791993, 35.787047064273743 ], [ -78.697222574240982, 35.78728763645703 ], [ -78.697138306730849, 35.78757966574949 ], [ -78.697020891304433, 35.787982742100617 ], [ -78.696983725344978, 35.788110806551984 ], [ -78.696832294434259, 35.788632582723075 ], [ -78.696805134852255, 35.788726160389913 ], [ -78.696754534037126, 35.788900514134774 ], [ -78.69670428570879, 35.789073738439967 ], [ -78.69664373978641, 35.789283040448176 ], [ -78.696613939775631, 35.789282659790068 ], [ -78.696545598914625, 35.789280506637724 ], [ -78.695347427686329, 35.789242758864567 ], [ -78.693931374475639, 35.789200768361113 ], [ -78.693935185220724, 35.789118407614581 ], [ -78.693943224714332, 35.788944659291737 ], [ -78.693944495710042, 35.788917201202558 ], [ -78.693975978636274, 35.788236793478035 ], [ -78.693996399761872, 35.78774061266239 ], [ -78.694005513229854, 35.787337296943527 ], [ -78.694007021446083, 35.787050034665121 ], [ -78.694650611399098, 35.787049761053993 ], [ -78.695320765480972, 35.787046458861163 ], [ -78.695484731230593, 35.7870432634083 ], [ -78.696323474369493, 35.78703986138887 ], [ -78.696540533340325, 35.787039029473526 ], [ -78.696970076496399, 35.787044297070864 ] ] ], [ [ [ -78.690439640407931, 35.789123468838866 ], [ -78.688311290437611, 35.789063348986282 ], [ -78.687008263586691, 35.789026624543801 ], [ -78.68685313034635, 35.789022921586692 ], [ -78.686851034433204, 35.789083098123442 ], [ -78.68640897426134, 35.789077106484307 ], [ -78.686273648065537, 35.78907520688491 ], [ -78.68658396852237, 35.788713294270309 ], [ -78.686691983420815, 35.78858315641429 ], [ -78.686753449249451, 35.788507324730311 ], [ -78.686811351128, 35.78842965321973 ], [ -78.686865607871383, 35.78835025434703 ], [ -78.686917522809836, 35.788261653903618 ], [ -78.686962899997624, 35.788170702153323 ], [ -78.687001581133629, 35.788077717772936 ], [ -78.687033428898886, 35.787983029406902 ], [ -78.687058331406035, 35.787886969369538 ], [ -78.687084042764823, 35.787763107591999 ], [ -78.687103125239176, 35.787638452721367 ], [ -78.687106090152852, 35.78763468189463 ], [ -78.687105301670726, 35.787620601751044 ], [ -78.687113234648081, 35.787531333915538 ], [ -78.687116392846434, 35.787477595680834 ], [ -78.687125280378083, 35.787249937657926 ], [ -78.68712373309701, 35.78721439001324 ], [ -78.68712778675156, 35.787194258949185 ], [ -78.687135813061829, 35.787174935777529 ], [ -78.687147597633981, 35.787156936418171 ], [ -78.687162825534784, 35.787140744084134 ], [ -78.687181089112144, 35.787126789472104 ], [ -78.687201900177413, 35.787115447188654 ], [ -78.687224701123384, 35.787107021357173 ], [ -78.687248883768191, 35.787101735751868 ], [ -78.687273799317822, 35.787099732020621 ], [ -78.687702454815948, 35.787095337842302 ], [ -78.688110837428013, 35.787101877665975 ], [ -78.688254562068423, 35.7871012152698 ], [ -78.688256291836325, 35.787089543661935 ], [ -78.688447984032678, 35.787090477465647 ], [ -78.68847966908794, 35.787090631494785 ], [ -78.68848209726265, 35.787090629591269 ], [ -78.689830917037824, 35.787089784116439 ], [ -78.69153278500211, 35.787100115061627 ], [ -78.692591932000113, 35.787103822303727 ], [ -78.693804501629046, 35.787106362012828 ], [ -78.693803214160525, 35.787335414138788 ], [ -78.693794108781063, 35.787736326878516 ], [ -78.693773691810165, 35.788230790611671 ], [ -78.693731084865107, 35.789116597693024 ], [ -78.693727123480031, 35.789198953548357 ], [ -78.691755132055746, 35.789150360744799 ], [ -78.691752115503235, 35.789232745069448 ], [ -78.690910642574735, 35.789211759811714 ], [ -78.690914662254713, 35.789138058905067 ], [ -78.690439640407931, 35.789123468838866 ] ] ], [ [ [ -78.685820940657933, 35.789714176616613 ], [ -78.685803180757731, 35.78983776021466 ], [ -78.685781269233999, 35.789835986644974 ], [ -78.685662641843763, 35.789776613703118 ], [ -78.685693556625068, 35.789738402514679 ], [ -78.68570075561685, 35.789730007930295 ], [ -78.685716412060842, 35.789713907028798 ], [ -78.685832441413439, 35.789574609542079 ], [ -78.685820940657933, 35.789714176616613 ] ] ] ] } },
{ "type": "Feature", "properties": { "region_id": "RAL-03B", "parent_city": "Raleigh", "display_name": "Pullen Park", "geometry_source": "City of Raleigh Developed_Parks", "source_authority": "City of Raleigh", "source_query_or_filter": "NAME contains 'Pullen', selected NAME = 'Pullen'", "retrieved_at_utc": "2026-10-10T12:57:32Z", "original_crs": "EPSG:4326", "final_crs": "EPSG:4326", "review_required": false, "geometry_valid": true, "notes": "Dissolved all polygons for selected park name without convex hull or simplification.", "source_matched_names": "Pullen", "ncsu_precinct_name": null, "osm_display_name": null, "osm_type": null, "osm_id": null, "osm_name": null }, "geometry": { "type": "MultiPolygon", "coordinates": [ [ [ [ -78.663863916928904, 35.778695257216903 ], [ -78.663968241361999, 35.7787401888556 ], [ -78.664026293971304, 35.7787664457368 ], [ -78.664096968508005, 35.778796693415202 ], [ -78.664529487711306, 35.778967187458299 ], [ -78.664726419724403, 35.779040016901902 ], [ -78.664792072759298, 35.779060976372001 ], [ -78.664856879656796, 35.7790843364753 ], [ -78.665220530424406, 35.779197118068701 ], [ -78.665280292031298, 35.779216858684002 ], [ -78.665338377203199, 35.779234360220102 ], [ -78.665412466695201, 35.779254307780498 ], [ -78.665468871174994, 35.779270604942496 ], [ -78.665664203580107, 35.779321105656898 ], [ -78.665796405705805, 35.779353062490699 ], [ -78.665860389653304, 35.779370924274197 ], [ -78.6659168028403, 35.779385154458403 ], [ -78.665984178996197, 35.779399075767998 ], [ -78.666086059632207, 35.779424771300597 ], [ -78.666198903370699, 35.779448261442397 ], [ -78.666390089419195, 35.779483297801598 ], [ -78.666418713044607, 35.779492304945798 ], [ -78.666445638661898, 35.779502681089802 ], [ -78.666475923453802, 35.779516844879197 ], [ -78.666530562633298, 35.779552539150501 ], [ -78.666558280695995, 35.779575960858402 ], [ -78.666611166994699, 35.779627965610999 ], [ -78.666675806690606, 35.779691334256697 ], [ -78.667057696570694, 35.780084038939897 ], [ -78.667161764354006, 35.780193016049601 ], [ -78.667156204849604, 35.780315082228803 ], [ -78.667140074477203, 35.780548047592198 ], [ -78.667131270632794, 35.780639194945699 ], [ -78.667110950505204, 35.780866137739899 ], [ -78.667109158047197, 35.780892064638003 ], [ -78.667100476365604, 35.780953510177 ], [ -78.667091048817497, 35.780990573101597 ], [ -78.667083363113903, 35.781015620402201 ], [ -78.667069728035599, 35.7810518137426 ], [ -78.667048456888693, 35.781100181456097 ], [ -78.667031415676504, 35.781144773260202 ], [ -78.667016948987794, 35.781178217010499 ], [ -78.667005900643801, 35.781199481167903 ], [ -78.666986393222203, 35.781230506338197 ], [ -78.666937263275898, 35.781289439192797 ], [ -78.666916950336798, 35.781308960042502 ], [ -78.666910179049395, 35.781315809803601 ], [ -78.666863671684197, 35.781351910531697 ], [ -78.6668137947064, 35.781386458016399 ], [ -78.666737754900197, 35.781431238127702 ], [ -78.666684545703305, 35.781457021647 ], [ -78.666603496441596, 35.781489080759201 ], [ -78.666508932047293, 35.781528142351704 ], [ -78.666258170590197, 35.7816316821622 ], [ -78.666167775833699, 35.781680715711502 ], [ -78.666100164344101, 35.781724142158602 ], [ -78.666041826276398, 35.781767423634001 ], [ -78.665982604301703, 35.7818216945996 ], [ -78.665929289896297, 35.781872028422001 ], [ -78.665886072442404, 35.7819277141759 ], [ -78.665843670369199, 35.781989241985102 ], [ -78.665809690237197, 35.782054052156603 ], [ -78.665772310332898, 35.782124870390497 ], [ -78.6656915352266, 35.782294292396003 ], [ -78.665597128052198, 35.782498879070403 ], [ -78.665486572539905, 35.782734499799403 ], [ -78.665421204705595, 35.782848677919603 ], [ -78.665412704605501, 35.782864794111902 ], [ -78.665369783886902, 35.782848536691098 ], [ -78.664963275580106, 35.782700267171201 ], [ -78.662921467593193, 35.7819635081499 ], [ -78.662790168679194, 35.7819171237511 ], [ -78.661788657939198, 35.781550847220601 ], [ -78.661132199455196, 35.781312237852497 ], [ -78.661006777658699, 35.781272911001103 ], [ -78.660351196988501, 35.781028118383702 ], [ -78.660132381884694, 35.7809474909036 ], [ -78.661011109446804, 35.780239244630302 ], [ -78.661194621261799, 35.780094318885098 ], [ -78.661360370130893, 35.779963937223798 ], [ -78.661667316615905, 35.779727833540299 ], [ -78.661771305000798, 35.779653432010697 ], [ -78.662097734214001, 35.779394374380203 ], [ -78.6622093678574, 35.779303677454898 ], [ -78.6622761727442, 35.779251318526697 ], [ -78.662315091550795, 35.7792179430961 ], [ -78.662354824190899, 35.779188864837003 ], [ -78.662394554128795, 35.779162017396402 ], [ -78.662456234579807, 35.779124925639898 ], [ -78.662522980865006, 35.779087335017799 ], [ -78.662709656753606, 35.778989803248102 ], [ -78.662769618147493, 35.7789624988296 ], [ -78.662934226220003, 35.778901655432797 ], [ -78.663173913190207, 35.778826084065301 ], [ -78.663238035559004, 35.778810457984399 ], [ -78.6634818185006, 35.778764258784399 ], [ -78.663643753585902, 35.778737919705797 ], [ -78.663863916928904, 35.778695257216903 ] ] ], [ [ [ -78.666231137528797, 35.781849848853703 ], [ -78.666286915051998, 35.781814283026698 ], [ -78.666360412116205, 35.781774135476702 ], [ -78.6664288036892, 35.781745647264103 ], [ -78.666604415057094, 35.781675213499597 ], [ -78.666612020787795, 35.781670426521899 ], [ -78.666781726423807, 35.781601521250302 ], [ -78.6668298667051, 35.781578298078003 ], [ -78.666878861128595, 35.781552335320498 ], [ -78.666926178259999, 35.781524304771303 ], [ -78.6669844987251, 35.781485141083003 ], [ -78.6670140899014, 35.781463246194299 ], [ -78.667054680174402, 35.781431247499597 ], [ -78.667071604151403, 35.781415151503602 ], [ -78.667107997658803, 35.781378849100903 ], [ -78.667141030218303, 35.781339964154498 ], [ -78.667171546127605, 35.781298153757298 ], [ -78.667205507188996, 35.781239518279499 ], [ -78.667231039777903, 35.781178630734502 ], [ -78.667233612903203, 35.781167819779498 ], [ -78.667257425273405, 35.781116372758802 ], [ -78.667268502381702, 35.781087558962398 ], [ -78.667283009725594, 35.781043126052502 ], [ -78.667292414998002, 35.781011728028098 ], [ -78.667302719927093, 35.780966255199402 ], [ -78.667311402175599, 35.780904634786602 ], [ -78.667313202343706, 35.780874934861899 ], [ -78.667328511486502, 35.780637675938699 ], [ -78.667339012868595, 35.780543609232097 ], [ -78.667341752120706, 35.780512297552598 ], [ -78.667436674078502, 35.780796988964099 ], [ -78.667540351782804, 35.781097843712601 ], [ -78.667564029662501, 35.781166545106302 ], [ -78.667877126046506, 35.781099073261899 ], [ -78.668308857772402, 35.781006063088398 ], [ -78.668465997743297, 35.781556365588401 ], [ -78.668257985253604, 35.7819470718822 ], [ -78.668024431975894, 35.781943382812997 ], [ -78.667262543827405, 35.781925696559099 ], [ -78.666873146299395, 35.781916662681901 ], [ -78.666321954825094, 35.781901948589699 ], [ -78.666058513033306, 35.782013027277898 ], [ -78.666092404913996, 35.781970347597401 ], [ -78.666133876416097, 35.781930282759198 ], [ -78.666186325229503, 35.781883551869598 ], [ -78.666231137528797, 35.781849848853703 ] ] ], [ [ [ -78.661419516197, 35.783755396426699 ], [ -78.661420536775395, 35.783511575655602 ], [ -78.661429808658895, 35.783511601422902 ], [ -78.661430778304904, 35.783078559606402 ], [ -78.661429988013694, 35.782864608930801 ], [ -78.661430100846005, 35.782837651725899 ], [ -78.661431336143806, 35.782743902337501 ], [ -78.661431901025793, 35.782608943248299 ], [ -78.661433293703098, 35.7824775918466 ], [ -78.661433864340694, 35.782341256403001 ], [ -78.661434424907299, 35.782207326623798 ], [ -78.661434463149803, 35.782198189762603 ], [ -78.661434973260299, 35.7820763144693 ], [ -78.661435188850405, 35.782024805715999 ], [ -78.661511782108406, 35.782052147331001 ], [ -78.6625132958969, 35.782418087165198 ], [ -78.662918949681796, 35.782567736180297 ], [ -78.663287632614001, 35.782690495395698 ], [ -78.663704226654701, 35.782843950462301 ], [ -78.664197405231604, 35.783027666150801 ], [ -78.664682185595595, 35.783204481229497 ], [ -78.665132470389906, 35.783366440881998 ], [ -78.6651265116612, 35.783379474217 ], [ -78.664918421128903, 35.783761290734503 ], [ -78.664797856083496, 35.783971644585101 ], [ -78.664696910698694, 35.784125732499199 ], [ -78.6645884093913, 35.784272414780503 ], [ -78.664529961614605, 35.784342310191498 ], [ -78.664514714039896, 35.784359610131901 ], [ -78.664459704571598, 35.784412344305203 ], [ -78.664401332330698, 35.784463182669398 ], [ -78.6643395976525, 35.7845117773007 ], [ -78.664274497681603, 35.784558815914203 ], [ -78.664191670589503, 35.784612852366301 ], [ -78.664068350434306, 35.784673982486098 ], [ -78.663934058239207, 35.784737654660503 ], [ -78.663876612159896, 35.784768059073798 ], [ -78.663823373132601, 35.7848005373516 ], [ -78.663747286915907, 35.784854245080297 ], [ -78.663677922029805, 35.784912433886603 ], [ -78.663655078867393, 35.784933492098403 ], [ -78.663612751830996, 35.7849769869309 ], [ -78.663556841698806, 35.785043625991698 ], [ -78.663522926533105, 35.785091271290597 ], [ -78.663491534381905, 35.785140291793503 ], [ -78.663452439365699, 35.785216247603898 ], [ -78.663442225206595, 35.785241115502302 ], [ -78.663419207806896, 35.785303211529303 ], [ -78.663407288375197, 35.785331677398098 ], [ -78.663380932825703, 35.785385696234201 ], [ -78.663333391955106, 35.785465579270102 ], [ -78.663296936761299, 35.785516648008901 ], [ -78.6632774419284, 35.785541665103601 ], [ -78.663213926724296, 35.7856134323739 ], [ -78.663191072084103, 35.785636373377301 ], [ -78.663167374013995, 35.785658634231403 ], [ -78.663118309129004, 35.785701427033899 ], [ -78.663065875888606, 35.785741804805298 ], [ -78.663038825596402, 35.785760961136802 ], [ -78.662982198864199, 35.785797035959497 ], [ -78.662952625033299, 35.785814124811303 ], [ -78.662905316892207, 35.785839063995297 ], [ -78.662816081649396, 35.785876877346098 ], [ -78.662767391052199, 35.785889253279102 ], [ -78.662717066735595, 35.785896017389298 ], [ -78.662360777774097, 35.785923404024203 ], [ -78.662287890701293, 35.785927085012098 ], [ -78.6622149432051, 35.785924306735303 ], [ -78.662142795801799, 35.7859151013242 ], [ -78.662086704171998, 35.7858928726722 ], [ -78.662102843281801, 35.784813119567602 ], [ -78.661429134950694, 35.784580090499098 ], [ -78.661414997942899, 35.784472234716901 ], [ -78.661424525103996, 35.784196708402902 ], [ -78.661427896790698, 35.784196702450103 ], [ -78.661428870887804, 35.783949446548803 ], [ -78.661429229251198, 35.783851408848797 ], [ -78.661430474627295, 35.783755255625003 ], [ -78.661419516197, 35.783755396426699 ] ] ] ] } },
{ "type": "Feature", "properties": { "region_id": "RAL-04", "parent_city": "Raleigh", "display_name": "NC State Centennial Campus", "geometry_source": "NC State Facilities Campus Perimeters shapefile", "source_authority": "NC State Facilities", "source_query_or_filter": "Precinct_N = 'Centennial Campus'", "retrieved_at_utc": "2026-10-10T12:57:32Z", "original_crs": "PROJCS[\"NAD83 / North Carolina (ftUS)\",GEOGCS[\"NAD83\",DATUM[\"North_American_Datum_1983\",SPHEROID[\"GRS 1980\",6378137,298.257222101,AUTHORITY[\"EPSG\",\"7019\"]],AUTHORITY[\"EPSG\",\"6269\"]],PRIMEM[\"Greenwich\",0],UNIT[\"Degree\",0.0174532925199433]],PROJECTION[\"Lambert_Conformal_Conic_2SP\"],PARAMETER[\"latitude_of_origin\",33.75],PARAMETER[\"central_meridian\",-79],PARAMETER[\"standard_parallel_1\",34.3333333333333],PARAMETER[\"standard_parallel_2\",36.1666666666667],PARAMETER[\"false_easting\",2000000.00261667],PARAMETER[\"false_northing\",0],UNIT[\"US survey foot\",0.304800609601219,AUTHORITY[\"EPSG\",\"9003\"]],AXIS[\"Easting\",EAST],AXIS[\"Northing\",NORTH]]", "final_crs": "EPSG:4326", "review_required": false, "geometry_valid": true, "notes": "Official NC State campus perimeter precinct record dissolved if multipart.", "source_matched_names": null, "ncsu_precinct_name": "Centennial Campus", "osm_display_name": null, "osm_type": null, "osm_id": null, "osm_name": null }, "geometry": { "type": "MultiPolygon", "coordinates": [ [ [ [ -78.682661191765149, 35.752582434953119 ], [ -78.684486306264375, 35.752616029591913 ], [ -78.685289290617874, 35.752647527596842 ], [ -78.68657643978581, 35.752679598537625 ], [ -78.68712679265272, 35.752694964902624 ], [ -78.687766797448333, 35.752712832791012 ], [ -78.687534870079929, 35.752747882053988 ], [ -78.687200589585771, 35.752822010402795 ], [ -78.68712478952429, 35.752836969279436 ], [ -78.686111616138248, 35.753043675830661 ], [ -78.685785582425055, 35.753109174843871 ], [ -78.68553778449386, 35.753158957083777 ], [ -78.685326463036304, 35.753202236954863 ], [ -78.684998001730918, 35.753269507764571 ], [ -78.68468796896623, 35.753332417774054 ], [ -78.684521911631236, 35.753366206785877 ], [ -78.684493822800391, 35.753371922525211 ], [ -78.684287384941754, 35.753414777890363 ], [ -78.683931778470651, 35.753488600414236 ], [ -78.683597444626045, 35.753551264304072 ], [ -78.682899677596041, 35.753664597641311 ], [ -78.682628742883736, 35.753708602725979 ], [ -78.682147275186168, 35.753786800657394 ], [ -78.682149156364105, 35.753647669586748 ], [ -78.682161339775647, 35.752746518527275 ], [ -78.6821635993104, 35.752580019621533 ], [ -78.682661191765149, 35.752582434953119 ] ] ], [ [ [ -78.670533319110689, 35.754707763693624 ], [ -78.670848843132049, 35.754791351429304 ], [ -78.670860742941016, 35.754794503183192 ], [ -78.671158364631992, 35.754874630997833 ], [ -78.671382589772023, 35.754934997029437 ], [ -78.671447384697984, 35.754956463676535 ], [ -78.671803575053389, 35.755046559157016 ], [ -78.671813544316208, 35.755049144070092 ], [ -78.672126667810346, 35.755130346036417 ], [ -78.672232019022076, 35.755156736485759 ], [ -78.672698894547537, 35.755272456174531 ], [ -78.672706639962783, 35.755275626326807 ], [ -78.672921889189809, 35.755327843272589 ], [ -78.6731359393346, 35.755383239304571 ], [ -78.673341187258302, 35.755434896862972 ], [ -78.673616584435536, 35.755504207658745 ], [ -78.673502269857465, 35.755538930622734 ], [ -78.673223879260519, 35.755619401499224 ], [ -78.672489727127925, 35.755745968106027 ], [ -78.6721264462997, 35.755808594767508 ], [ -78.671895405726232, 35.755848496578828 ], [ -78.671862387309801, 35.755854032077259 ], [ -78.671622211104307, 35.755894292732698 ], [ -78.671378644250936, 35.755906513413649 ], [ -78.671003614620474, 35.755922157023669 ], [ -78.670932255545182, 35.75592557325875 ], [ -78.670725900494844, 35.755935451403722 ], [ -78.670160807590008, 35.75596250062447 ], [ -78.66993411600258, 35.755973350794797 ], [ -78.669895782639628, 35.755965671905948 ], [ -78.668795825729077, 35.755745322689933 ], [ -78.668939713880448, 35.755634115278909 ], [ -78.669014888104741, 35.755576013617436 ], [ -78.669389865244156, 35.755325286212717 ], [ -78.669421588638372, 35.755304075095857 ], [ -78.669830548427484, 35.755030620737799 ], [ -78.669864788441345, 35.75500749373505 ], [ -78.670371712258159, 35.754665087049347 ], [ -78.670520754320265, 35.754704446061794 ], [ -78.670533319110689, 35.754707763693624 ] ] ], [ [ [ -78.66190280259282, 35.758489788547202 ], [ -78.66184121852956, 35.75853160178464 ], [ -78.661781205836135, 35.758572347643266 ], [ -78.66159730922675, 35.75869720357084 ], [ -78.661410642101856, 35.758697546456375 ], [ -78.661043465210241, 35.758698219662463 ], [ -78.660897031039795, 35.75869848804787 ], [ -78.66078645287935, 35.7586986911815 ], [ -78.659546654663899, 35.758700953558098 ], [ -78.65936889512885, 35.758701276751928 ], [ -78.658368161278048, 35.758703092268874 ], [ -78.658243435724529, 35.758306992464703 ], [ -78.658191658048992, 35.758308374055119 ], [ -78.657672060097084, 35.756658200403272 ], [ -78.657618792425737, 35.756489023938279 ], [ -78.657969047773335, 35.756612458182005 ], [ -78.658322130539986, 35.756730417298094 ], [ -78.658677913670488, 35.756842860345699 ], [ -78.659036265691199, 35.756949744570065 ], [ -78.659397057322664, 35.757051030829487 ], [ -78.659760157056098, 35.757146683582718 ], [ -78.660125431172688, 35.757236666382489 ], [ -78.660492748140342, 35.757320948197098 ], [ -78.662090532933291, 35.757674164048339 ], [ -78.663787032485516, 35.758341410223437 ], [ -78.663888290873942, 35.758381234861872 ], [ -78.66384776023061, 35.758419729835929 ], [ -78.663668438858167, 35.75859004061946 ], [ -78.663611274663907, 35.758644331790862 ], [ -78.663513004334163, 35.758737664228285 ], [ -78.663007252843244, 35.759217994956366 ], [ -78.662395421872276, 35.75862096553157 ], [ -78.662279209349251, 35.758507562944715 ], [ -78.662248543341079, 35.758477638547973 ], [ -78.662228651860431, 35.758458227685601 ], [ -78.662160484977306, 35.758391708799358 ], [ -78.662114103355123, 35.758346323995596 ], [ -78.66198448909708, 35.758434326870557 ], [ -78.66190280259282, 35.758489788547202 ] ] ], [ [ [ -78.669427621011849, 35.774819009100497 ], [ -78.66935542719871, 35.774700801208787 ], [ -78.669290314546345, 35.774579893120425 ], [ -78.669232433403877, 35.77445656737742 ], [ -78.669181920829985, 35.774331110090095 ], [ -78.669138891737816, 35.774203812715598 ], [ -78.669103447743453, 35.77407497208204 ], [ -78.669062827015324, 35.773892459986158 ], [ -78.669030354697924, 35.773708866752237 ], [ -78.669006072876527, 35.773524435865625 ], [ -78.668990012582213, 35.773339408977535 ], [ -78.668982198205526, 35.773154028620837 ], [ -78.668982635326401, 35.772968539078327 ], [ -78.668991327312824, 35.77278318462529 ], [ -78.669008258734138, 35.772598208582814 ], [ -78.669033411944582, 35.772413855165844 ], [ -78.669066750507966, 35.772230365832499 ], [ -78.669108231353306, 35.772047982021512 ], [ -78.669157799248808, 35.771866944235491 ], [ -78.669215390127306, 35.771687490247643 ], [ -78.669280926663092, 35.771509855089612 ], [ -78.669354324889369, 35.771334275576514 ], [ -78.669512200584279, 35.771093254601467 ], [ -78.669671253323514, 35.770775283740633 ], [ -78.669885798840184, 35.77067376120587 ], [ -78.670053755513266, 35.770337984308767 ], [ -78.66999547650839, 35.770156207744442 ], [ -78.670122714479291, 35.769901830489268 ], [ -78.670184069748956, 35.769662734691593 ], [ -78.670430387110216, 35.769143819084107 ], [ -78.670504336300368, 35.768958906749809 ], [ -78.670569852893991, 35.768771893037275 ], [ -78.67062684520981, 35.76858303459688 ], [ -78.670675238151276, 35.768392589925149 ], [ -78.670714964365999, 35.76820081753776 ], [ -78.670745969760432, 35.768007979589925 ], [ -78.670768211294813, 35.767814340067808 ], [ -78.670781660308123, 35.767620162994561 ], [ -78.670786298089837, 35.76742571331981 ], [ -78.670782116985876, 35.767231256922507 ], [ -78.670769123723048, 35.767037058817365 ], [ -78.670747337189482, 35.766843384951407 ], [ -78.670716785127325, 35.766650499491064 ], [ -78.670677510768087, 35.766458664840243 ], [ -78.670629567291385, 35.766268144329139 ], [ -78.670573020054874, 35.766079197714014 ], [ -78.67050794769591, 35.765892082081173 ], [ -78.670434436594491, 35.765707053635026 ], [ -78.670350671549571, 35.765430842679741 ], [ -78.670160202034793, 35.76509839035031 ], [ -78.670079624872315, 35.764957745850033 ], [ -78.669849430372537, 35.764670097082124 ], [ -78.669613650244699, 35.764385469355325 ], [ -78.6694562919145, 35.764218901405947 ], [ -78.669295046730525, 35.764054822141475 ], [ -78.669099125864889, 35.763859233587695 ], [ -78.668897594406005, 35.763667469216927 ], [ -78.66869056583657, 35.763479635670265 ], [ -78.668478155858324, 35.763295836891032 ], [ -78.66826048127524, 35.76311617682547 ], [ -78.668037665545, 35.762940754030133 ], [ -78.667809831015589, 35.762769667058791 ], [ -78.666927553198946, 35.762123960489987 ], [ -78.666933976402049, 35.76211826617628 ], [ -78.667591573413418, 35.761535314776793 ], [ -78.667648514506709, 35.76148483751318 ], [ -78.667717357178773, 35.76142380809339 ], [ -78.667709242805103, 35.76141909711194 ], [ -78.667599294516904, 35.761355263353465 ], [ -78.667508599082367, 35.761302608368574 ], [ -78.667127901977224, 35.761081581318969 ], [ -78.667052386572479, 35.761037738551991 ], [ -78.665838722327237, 35.760333089009954 ], [ -78.665637061317128, 35.760216002147061 ], [ -78.664143491273791, 35.759348800572091 ], [ -78.66400334774842, 35.759267429109741 ], [ -78.664270870622985, 35.759084679876061 ], [ -78.664325075659406, 35.759047663724836 ], [ -78.664338442276616, 35.759038532885263 ], [ -78.664365951789733, 35.75901974154165 ], [ -78.66439868793482, 35.758997380807571 ], [ -78.664556171415086, 35.758889805315796 ], [ -78.664613218551835, 35.75885083731724 ], [ -78.66461912387588, 35.758846803791982 ], [ -78.664854264030879, 35.758686181577303 ], [ -78.664994460466403, 35.758707995201085 ], [ -78.665130999006237, 35.758729238864284 ], [ -78.665897578860026, 35.758848507704506 ], [ -78.666085630287213, 35.758877764930887 ], [ -78.66618847500547, 35.758893766484292 ], [ -78.667076811242936, 35.758803150299705 ], [ -78.668085514411587, 35.758369496341317 ], [ -78.668858838367143, 35.757931632983343 ], [ -78.669860338268407, 35.757562599771823 ], [ -78.672268641292675, 35.757075625030289 ], [ -78.672498527508452, 35.757029137718582 ], [ -78.672797390925467, 35.756968701161419 ], [ -78.673006875272605, 35.756926338560518 ], [ -78.673152405474468, 35.756896908781272 ], [ -78.675221682603109, 35.756478428247149 ], [ -78.675607234237788, 35.756418743234775 ], [ -78.676153060736013, 35.75633424535387 ], [ -78.676604493642373, 35.756264358657468 ], [ -78.677035612258564, 35.756197210619867 ], [ -78.677186402110109, 35.756173620835462 ], [ -78.677548358474382, 35.756116994837228 ], [ -78.677717373367429, 35.756066878893833 ], [ -78.677770748080547, 35.756051095884558 ], [ -78.678438428994866, 35.755853656628439 ], [ -78.679804391265208, 35.755460820647784 ], [ -78.680587038114098, 35.755326689171653 ], [ -78.68127400668952, 35.755208949435399 ], [ -78.681285644150847, 35.755206954545933 ], [ -78.68139939844076, 35.75518745752516 ], [ -78.681420416744558, 35.755183669129813 ], [ -78.681880024460867, 35.755069700776907 ], [ -78.682139920209138, 35.755005254655792 ], [ -78.682718424678825, 35.75486162603864 ], [ -78.683848472907755, 35.754630682071472 ], [ -78.684511705983141, 35.754495134594364 ], [ -78.685212398355688, 35.754351926875991 ], [ -78.686753917494826, 35.754036854251581 ], [ -78.687564507392381, 35.753871168114166 ], [ -78.688302427458396, 35.753720330627203 ], [ -78.689401921693971, 35.753495574522816 ], [ -78.691179593250908, 35.753132163817 ], [ -78.691539830567507, 35.753058516649411 ], [ -78.691795208332039, 35.753012067391182 ], [ -78.692844097341649, 35.752821285565531 ], [ -78.693482293892018, 35.752837472072947 ], [ -78.693774507780105, 35.752844881748508 ], [ -78.693773237628506, 35.753272556476205 ], [ -78.69430037727561, 35.753285490311349 ], [ -78.694417949252241, 35.753141298990236 ], [ -78.694401670342444, 35.753287956463268 ], [ -78.694381993643873, 35.753430145493496 ], [ -78.694354029319783, 35.753571409655059 ], [ -78.694317839363435, 35.753711426412785 ], [ -78.694273506755508, 35.753849879592181 ], [ -78.694263389467082, 35.753878128810086 ], [ -78.694293326446356, 35.753887387873121 ], [ -78.694281078951349, 35.753918693648934 ], [ -78.69427824513312, 35.753925937037572 ], [ -78.694241179398347, 35.75400852080255 ], [ -78.694201029903397, 35.75409014137432 ], [ -78.694198110558034, 35.754088704494244 ], [ -78.694186455950558, 35.754104434524962 ], [ -78.694192417773763, 35.754107204938883 ], [ -78.694179101838685, 35.754133586619524 ], [ -78.694127293156384, 35.754235910859286 ], [ -78.69407054483267, 35.754336479444326 ], [ -78.694041500695377, 35.754384376606055 ], [ -78.694028357579555, 35.754405677762847 ], [ -78.694015221835826, 35.75439900177161 ], [ -78.694004742523134, 35.754412703081847 ], [ -78.694019521588913, 35.754420221463327 ], [ -78.693898476728393, 35.754619465603753 ], [ -78.693875434234911, 35.754611918324713 ], [ -78.693854289484307, 35.754397970877235 ], [ -78.693777776528705, 35.754407813299423 ], [ -78.69370303714085, 35.754424396863321 ], [ -78.693630961089312, 35.754447526413614 ], [ -78.693562409709472, 35.754476923800851 ], [ -78.693498199273719, 35.754512239556647 ], [ -78.693439096572106, 35.754553051980963 ], [ -78.693385805616543, 35.754598874318987 ], [ -78.693338963193767, 35.754649161059 ], [ -78.692876528221774, 35.75521461730672 ], [ -78.692762593657363, 35.755149811835317 ], [ -78.689084397064164, 35.759529080240888 ], [ -78.689081240795815, 35.759691147326485 ], [ -78.689075223247755, 35.760099086490577 ], [ -78.689065681008159, 35.760518312366081 ], [ -78.689051286390537, 35.76128334896984 ], [ -78.689042702999004, 35.761737885843779 ], [ -78.689012328401816, 35.76334636649581 ], [ -78.689004554708049, 35.763758450521891 ], [ -78.688990597142038, 35.764498675910332 ], [ -78.688989042832617, 35.764581086200543 ], [ -78.688984014629241, 35.764847383332857 ], [ -78.688981875299788, 35.76496085722772 ], [ -78.688980276113782, 35.765045730786774 ], [ -78.688972964298372, 35.765433668540368 ], [ -78.688976299024276, 35.765433866339713 ], [ -78.690616896249537, 35.765426561397305 ], [ -78.690739571491562, 35.765426003134614 ], [ -78.690739064699557, 35.765502457238924 ], [ -78.690733290196391, 35.765740102980317 ], [ -78.69071911806202, 35.765977514661124 ], [ -78.690696560036471, 35.766214494912418 ], [ -78.69069383803631, 35.766238578432436 ], [ -78.690592202650308, 35.766239570470731 ], [ -78.688960807811299, 35.766255571429006 ], [ -78.688957472164475, 35.766255604373121 ], [ -78.688921042892204, 35.768188391475086 ], [ -78.688912871844352, 35.768621885437398 ], [ -78.688906948910017, 35.768936083144091 ], [ -78.68890267922167, 35.769162597100923 ], [ -78.688895937555941, 35.769520281945482 ], [ -78.688142392209556, 35.769510043650193 ], [ -78.687018027393847, 35.769494709437438 ], [ -78.686928452582251, 35.769493539134047 ], [ -78.68645213835039, 35.769487059993942 ], [ -78.682347222957091, 35.769431170988774 ], [ -78.682367900026946, 35.771303458786434 ], [ -78.681693758563412, 35.77130068230381 ], [ -78.681674113383124, 35.771720116839965 ], [ -78.681672567883169, 35.771753104034048 ], [ -78.681654907616064, 35.772130142366237 ], [ -78.681678604867216, 35.772130239447712 ], [ -78.681563428077411, 35.773680183258115 ], [ -78.681566765111057, 35.773680157730183 ], [ -78.681563293553879, 35.77368092111206 ], [ -78.681552631675544, 35.773751349964904 ], [ -78.681544591806315, 35.77380446172392 ], [ -78.681508974044306, 35.774046578451618 ], [ -78.681513297678251, 35.774160618625707 ], [ -78.681526064363752, 35.774497316968684 ], [ -78.681533661130203, 35.774713841030881 ], [ -78.68146884054164, 35.774709367605901 ], [ -78.681466303506497, 35.774798909160488 ], [ -78.681465076975513, 35.77480815650479 ], [ -78.6814619547402, 35.774817102347882 ], [ -78.681457025185722, 35.774825490937481 ], [ -78.681450430833337, 35.774833081985712 ], [ -78.681338846051219, 35.774940904323323 ], [ -78.681211134075298, 35.775059240958704 ], [ -78.681077508430292, 35.775173158881742 ], [ -78.68094179316364, 35.775279756730477 ], [ -78.680800900328961, 35.775381796254159 ], [ -78.680770917752596, 35.775404046817457 ], [ -78.680551529238485, 35.775545524374543 ], [ -78.680513230853265, 35.77556839843232 ], [ -78.68031715640916, 35.775685502023606 ], [ -78.679874147204899, 35.775953583417241 ], [ -78.679419223048626, 35.776200058934414 ], [ -78.679382075363932, 35.776055232408552 ], [ -78.679318501776962, 35.775807375158109 ], [ -78.679315017517382, 35.775803501900832 ], [ -78.679251553263384, 35.775824150577286 ], [ -78.679186731176088, 35.775845241812661 ], [ -78.679136817152255, 35.775861481559936 ], [ -78.678971477247799, 35.775872258732996 ], [ -78.678904033557743, 35.775876654424636 ], [ -78.678398244368154, 35.77590961922111 ], [ -78.675218687503303, 35.776517570479292 ], [ -78.67451615285556, 35.776530144042717 ], [ -78.674512810821028, 35.776529733111346 ], [ -78.674477333701077, 35.776935323014065 ], [ -78.674298907590469, 35.776904157973057 ], [ -78.674122221135121, 35.776866989700785 ], [ -78.673947578368995, 35.776823882155014 ], [ -78.671680216666786, 35.776230851632988 ], [ -78.671060417699579, 35.776051053984766 ], [ -78.670816634071187, 35.775955795068711 ], [ -78.670583070635303, 35.775844827009024 ], [ -78.670361248552751, 35.775718872542434 ], [ -78.670152612493183, 35.775578752008911 ], [ -78.669958521225226, 35.775425378007483 ], [ -78.669780238766535, 35.775259749451131 ], [ -78.669780984703408, 35.775256658941821 ], [ -78.669684926625223, 35.775154711820498 ], [ -78.669592562080325, 35.775046229034373 ], [ -78.669506727910985, 35.774934240514177 ], [ -78.669427621011849, 35.774819009100497 ] ] ], [ [ [ -78.665354501254512, 35.774642307883546 ], [ -78.66513001752746, 35.773583803119941 ], [ -78.665228928789801, 35.772934033559508 ], [ -78.665860101376111, 35.773073550610448 ], [ -78.665876789941535, 35.773023303725516 ], [ -78.666429499881176, 35.773140818733658 ], [ -78.66630400022612, 35.772699435109494 ], [ -78.665912785101298, 35.772188139624944 ], [ -78.665755233716425, 35.771950551167251 ], [ -78.665014703352853, 35.770341480708097 ], [ -78.66595344351019, 35.769979951479094 ], [ -78.666125248465718, 35.769920017043695 ], [ -78.666301894822567, 35.769870301378468 ], [ -78.666482468836278, 35.76983106164748 ], [ -78.666666036450451, 35.769802500825655 ], [ -78.666851648127363, 35.769784766649046 ], [ -78.666823035446797, 35.768747232563463 ], [ -78.665584667081205, 35.76788347860407 ], [ -78.664834623690538, 35.76676440714045 ], [ -78.664135470898088, 35.765282969331317 ], [ -78.66751974560421, 35.76307897179484 ], [ -78.667939469887855, 35.763418134379499 ], [ -78.668339285120666, 35.763772917213323 ], [ -78.668718316999559, 35.764142544700761 ], [ -78.668984609199768, 35.764483583573984 ], [ -78.669113526309133, 35.76463712511989 ], [ -78.669099467454487, 35.764815959521776 ], [ -78.669318104757565, 35.765131805088785 ], [ -78.669490585306448, 35.765210274513684 ], [ -78.669625074051538, 35.765452636375365 ], [ -78.669761525242848, 35.765609178388573 ], [ -78.669917282852097, 35.765990941808475 ], [ -78.670035746525002, 35.766381500985737 ], [ -78.670116182909638, 35.766778439946975 ], [ -78.670158093862923, 35.767179303218853 ], [ -78.670161219545776, 35.767581611016759 ], [ -78.670125540044566, 35.7679828745839 ], [ -78.670051275508527, 35.768380611587382 ], [ -78.669938884802065, 35.768772361475293 ], [ -78.669789062679754, 35.76915570069977 ], [ -78.669570261640828, 35.769522125103229 ], [ -78.66934313435749, 35.76997392772028 ], [ -78.669162356547588, 35.77004449128534 ], [ -78.668994453182037, 35.770380268941281 ], [ -78.669047596017023, 35.770528526992614 ], [ -78.668907123130339, 35.770808434839708 ], [ -78.668909676074776, 35.770928355737773 ], [ -78.668753708663857, 35.771264267268478 ], [ -78.668595382459273, 35.771691470606406 ], [ -78.668481053806914, 35.772127899275233 ], [ -78.668411510363796, 35.772570549271428 ], [ -78.668387231552472, 35.773016373720793 ], [ -78.668408385240909, 35.77346230384947 ], [ -78.668474826566481, 35.773905270106908 ], [ -78.668512274881635, 35.774073276428389 ], [ -78.668556247484972, 35.774240229544098 ], [ -78.668606700112164, 35.774405961240689 ], [ -78.668709025672342, 35.774686827157332 ], [ -78.668798102736602, 35.774868097282663 ], [ -78.668903593570448, 35.775043419949007 ], [ -78.669024905406658, 35.775211809821961 ], [ -78.669161356549481, 35.775372320524312 ], [ -78.669312180204372, 35.775524049955642 ], [ -78.669476528786149, 35.775666145363161 ], [ -78.669653478681852, 35.775797808135188 ], [ -78.669655114383616, 35.775798935652688 ], [ -78.669822571653867, 35.775906863414626 ], [ -78.669998496775563, 35.776005440840677 ], [ -78.670182104912612, 35.776094228142227 ], [ -78.670372576943777, 35.77617282920648 ], [ -78.671105466716838, 35.776392569874467 ], [ -78.670887930792475, 35.776427288217313 ], [ -78.670667377094546, 35.776494928816831 ], [ -78.670393218036708, 35.776584772946727 ], [ -78.670340502365931, 35.776514950578509 ], [ -78.670191162877629, 35.776459490119755 ], [ -78.670014890254876, 35.776445309536498 ], [ -78.66983749737507, 35.776444102390784 ], [ -78.669497382936626, 35.776453541118073 ], [ -78.669519769971018, 35.776359336014877 ], [ -78.669520421567412, 35.776356600384027 ], [ -78.668804533943572, 35.776409341026152 ], [ -78.668438032148046, 35.776446205226904 ], [ -78.668120192364114, 35.776509696981201 ], [ -78.667794300690886, 35.776607175669284 ], [ -78.667521172531707, 35.776688871558989 ], [ -78.667167598135507, 35.776772994330329 ], [ -78.666085116723792, 35.777030530982444 ], [ -78.665522583814905, 35.777240514622491 ], [ -78.665488009291693, 35.777253420750704 ], [ -78.66524141873451, 35.777345467887947 ], [ -78.665273825438192, 35.77640497346168 ], [ -78.663290862611305, 35.77618549302808 ], [ -78.663560363867404, 35.774578144473466 ], [ -78.665354501254512, 35.774642307883546 ] ] ], [ [ [ -78.68155665167717, 35.774048748261393 ], [ -78.681591737431347, 35.773801256281295 ], [ -78.681591748729375, 35.773801195920377 ], [ -78.682396931816513, 35.773745427650077 ], [ -78.68238880798198, 35.774001775619233 ], [ -78.681639163186745, 35.774672334738682 ], [ -78.68163089454616, 35.774494089248776 ], [ -78.681579693499842, 35.774495665282075 ], [ -78.68155665167717, 35.774048748261393 ] ] ] ] } },
{ "type": "Feature", "properties": { "region_id": "RAL-05", "parent_city": "Raleigh", "display_name": "WakeMed Raleigh Campus", "geometry_source": "OpenStreetMap polygon fallback", "source_authority": "OpenStreetMap", "source_query_or_filter": "WakeMed Raleigh Campus, Raleigh, North Carolina", "retrieved_at_utc": "2026-10-10T12:57:32Z", "original_crs": "EPSG:4326", "final_crs": "EPSG:4326", "review_required": true, "geometry_valid": true, "notes": "OSM fallback; no authoritative public campus-perimeter layer identified. Nominatim returned a WakeMed hospital/healthcare Polygon/MultiPolygon.", "source_matched_names": null, "ncsu_precinct_name": null, "osm_display_name": "WakeMed Health & Hospitals: Raleigh Campus, 3000, New Bern Avenue, Southeast Raleigh, Raleigh, Wake County, North Carolina, 27610, United States", "osm_type": "way", "osm_id": 198168608.0, "osm_name": "WakeMed Health & Hospitals: Raleigh Campus" }, "geometry": { "type": "Polygon", "coordinates": [ [ [ -78.5911796, 35.7808224 ], [ -78.5911482, 35.7802882 ], [ -78.5895852, 35.7795487 ], [ -78.5892714, 35.7792876 ], [ -78.589285, 35.7782562 ], [ -78.5891402, 35.7782187 ], [ -78.5888332, 35.778179 ], [ -78.5885031, 35.7781946 ], [ -78.587827, 35.7782292 ], [ -78.5877827, 35.7801602 ], [ -78.588743, 35.7803843 ], [ -78.5887448, 35.7803491 ], [ -78.5887824, 35.7802839 ], [ -78.5888556, 35.7802298 ], [ -78.5889253, 35.7802233 ], [ -78.5890004, 35.7802341 ], [ -78.5890487, 35.7802668 ], [ -78.589089, 35.7803299 ], [ -78.589089, 35.7803886 ], [ -78.5890613, 35.7804427 ], [ -78.5890139, 35.7804931 ], [ -78.5889897, 35.7805279 ], [ -78.5889951, 35.7808238 ], [ -78.5890031, 35.780974 ], [ -78.5889889, 35.7810999 ], [ -78.5889629, 35.7811959 ], [ -78.5888154, 35.7815375 ], [ -78.5887483, 35.7817007 ], [ -78.5887, 35.7818618 ], [ -78.5876728, 35.7815506 ], [ -78.5873911, 35.7814723 ], [ -78.5871685, 35.7814418 ], [ -78.5868807, 35.7814306 ], [ -78.5866742, 35.7814458 ], [ -78.586465, 35.781485 ], [ -78.5863129, 35.7815288 ], [ -78.5861163, 35.7815981 ], [ -78.5858649, 35.781716 ], [ -78.5858569, 35.7817377 ], [ -78.5858596, 35.7817551 ], [ -78.5863504, 35.782508 ], [ -78.5855128, 35.782895 ], [ -78.5856201, 35.7830517 ], [ -78.5850764, 35.7833066 ], [ -78.5851193, 35.7833675 ], [ -78.5854036, 35.7837591 ], [ -78.5859076, 35.7836934 ], [ -78.5861654, 35.7839767 ], [ -78.5862938, 35.7841895 ], [ -78.5863156, 35.7842465 ], [ -78.5863317, 35.7843989 ], [ -78.5863639, 35.7844944 ], [ -78.5857577, 35.7850949 ], [ -78.5860044, 35.785282 ], [ -78.5859201, 35.7853603 ], [ -78.5881448, 35.7870033 ], [ -78.5882754, 35.7868377 ], [ -78.5884479, 35.7866443 ], [ -78.5887188, 35.7863767 ], [ -78.5896166, 35.7855474 ], [ -78.5908968, 35.7843684 ], [ -78.5909182, 35.7843401 ], [ -78.5909209, 35.7842988 ], [ -78.5909021, 35.7842683 ], [ -78.5908056, 35.784203 ], [ -78.5906634, 35.7840877 ], [ -78.5905285, 35.7839568 ], [ -78.5904427, 35.7838306 ], [ -78.5903362, 35.7836547 ], [ -78.5902925, 35.7835043 ], [ -78.5902772, 35.7832217 ], [ -78.5903201, 35.7829019 ], [ -78.5903523, 35.7826886 ], [ -78.5903595, 35.7825316 ], [ -78.5903461, 35.7823902 ], [ -78.5903281, 35.78226 ], [ -78.5902254, 35.7819071 ], [ -78.5902013, 35.7817744 ], [ -78.59022, 35.7816264 ], [ -78.5902879, 35.781457 ], [ -78.5904032, 35.7812721 ], [ -78.5905366, 35.7811281 ], [ -78.5907305, 35.7809587 ], [ -78.5908638, 35.780891 ], [ -78.5911796, 35.7808224 ] ] ] } }
]
}
