{
  "crs": {
    "properties": {
      "name": "EPSG:4326"
    },
    "type": "name"
  },
  "features": [
    {
      "geometry": {
        "coordinates": [
          [
            [
              -78.652322815627,
              35.8635772891803
            ],
            [
              -78.6522182628951,
              35.8635606780102
            ],
            [
              -78.6519847025789,
              35.8635243039914
            ],
            [
              -78.6516727275928,
              35.8634753304051
            ],
            [
              -78.6515083093694,
              35.8634494523634
            ],
            [
              -78.6510976887816,
              35.8633838886267
            ],
            [
              -78.6507401875289,
              35.8633268885991
            ],
            [
              -78.6505748880387,
              35.863114706757
            ],
            [
              -78.6508156536272,
              35.8628502881957
            ],
            [
              -78.6508585879311,
              35.8628725629578
            ],
            [
              -78.6509091091364,
              35.8628964006862
            ],
            [
              -78.6509596370405,
              35.8629186944449
            ],
            [
              -78.6509865910566,
              35.8629292440687
            ],
            [
              -78.6510640908185,
              35.8629579702052
            ],
            [
              -78.6511188596749,
              35.8629751258673
            ],
            [
              -78.6511727922432,
              35.8629905611892
            ],
            [
              -78.6512284196899,
              35.8630042861153
            ],
            [
              -78.6512840545884,
              35.8630162886073
            ],
            [
              -78.6513396968769,
              35.8630265821852
            ],
            [
              -78.6513675239673,
              35.863030608636
            ],
            [
              -78.6518295885792,
              35.863101127822
            ],
            [
              -78.6522512300153,
              35.8631543552697
            ],
            [
              -78.6522717210761,
              35.8632943487088
            ],
            [
              -78.652321988154,
              35.8635735075715
            ],
            [
              -78.652322815627,
              35.8635772891803
            ]
          ]
        ],
        "type": "Polygon"
      },
      "id": 51,
      "properties": {
        "ADDRESS": "6100 Dixon Dr",
        "ALTERNATE_ADDRESS": "NA",
        "CAC": "Midtown",
        "CITY_COUNCIL_DISTRICT": "A",
        "CITY_LIMITS": 1,
        "DEVELOPED": "Developed",
        "ETJ": 1,
        "FEMA_LOT": 0,
        "FILE_NUMBER": "SP-45",
        "GlobalID": "6744230b-8eea-4ee6-832a-aa2aace74e58",
        "ID_NUMBER": 54500,
        "INITIAL_AQUISITION_DATE": 80524800000,
        "LAT": 35.86324,
        "LON": -78.65146,
        "LWCF": "No",
        "MAINTENANCE_DISTRICT": "3",
        "MAP_ACRES": 1.6565411308056155,
        "NAME": "Dixon",
        "OBJECTID": 51,
        "OS_FACILITY_FEE_ZONE": "1",
        "PARCEL_COUNT": 1,
        "PARKID": 114,
        "PARK_TYPE": "Special",
        "Shape__Area": 72159.22033691406,
        "Shape__Length": 1287.5077039868438,
        "WEBSITE": "https://raleighnc.gov/places/dixon-drive-park",
        "ZIP_CODE": 27609
      },
      "type": "Feature"
    },
    {
      "geometry": {
        "coordinates": [
          [
            [
              [
                -78.6554860410834,
                35.7729498615397
              ],
              [
                -78.6549555460364,
                35.7725634451843
              ],
              [
                -78.6546345644749,
                35.7723597269912
              ],
              [
                -78.65431098468,
                35.7721587586963
              ],
              [
                -78.6533486901521,
                35.7715675504929
              ],
              [
                -78.6531485749204,
                35.7714446061223
              ],
              [
                -78.6530158391068,
                35.7713630559597
              ],
              [
                -78.6528963702116,
                35.7713095953239
              ],
              [
                -78.652819464015,
                35.7712623445192
              ],
              [
                -78.6525741673712,
                35.7711224592925
              ],
              [
                -78.652611737368,
                35.7710341239997
              ],
              [
                -78.6526227794957,
                35.7710081695166
              ],
              [
                -78.6523250805405,
                35.7708283315228
              ],
              [
                -78.6521893302327,
                35.7707463265658
              ],
              [
                -78.6521802296037,
                35.7707459102946
              ],
              [
                -78.6520051459473,
                35.7707378920517
              ],
              [
                -78.651831208086,
                35.7707301445336
              ],
              [
                -78.6517140819235,
                35.77072455932
              ],
              [
                -78.6515607152251,
                35.7706799661786
              ],
              [
                -78.6514049172676,
                35.7706413770016
              ],
              [
                -78.6507243207581,
                35.770527815647
              ],
              [
                -78.6500402835417,
                35.7704341100004
              ],
              [
                -78.6496349345271,
                35.770375842292
              ],
              [
                -78.6492307892357,
                35.7703122596219
              ],
              [
                -78.6488279538444,
                35.7702433794333
              ],
              [
                -78.648426533427,
                35.7701692182662
              ],
              [
                -78.6490472869499,
                35.7691110188784
              ],
              [
                -78.6499393239108,
                35.7685062129393
              ],
              [
                -78.6521554881172,
                35.7670541243436
              ],
              [
                -78.654433239732,
                35.7655186043451
              ],
              [
                -78.6573712315061,
                35.7635370428527
              ],
              [
                -78.6576763554105,
                35.7633258374748
              ],
              [
                -78.6577017751515,
                35.7633494928417
              ],
              [
                -78.6580547168288,
                35.7631165188842
              ],
              [
                -78.6581859332367,
                35.7631379257041
              ],
              [
                -78.6583376399028,
                35.76303020691
              ],
              [
                -78.6592395988771,
                35.7624057987035
              ],
              [
                -78.6595546731981,
                35.7634049140224
              ],
              [
                -78.6596198219845,
                35.7636246830196
              ],
              [
                -78.659677116386,
                35.7638459010286
              ],
              [
                -78.6597265084702,
                35.764068380445
              ],
              [
                -78.6597679558246,
                35.7642919354809
              ],
              [
                -78.659801423796,
                35.7645163758621
              ],
              [
                -78.6598268854593,
                35.7647415140384
              ],
              [
                -78.659844317218,
                35.7649671597633
              ],
              [
                -78.6598537043219,
                35.7651931228137
              ],
              [
                -78.6598550408679,
                35.7654192129895
              ],
              [
                -78.6598483242739,
                35.7656452391971
              ],
              [
                -78.6596689420218,
                35.7694174334022
              ],
              [
                -78.6596556042574,
                35.7696063582857
              ],
              [
                -78.6596335910933,
                35.7697947433417
              ],
              [
                -78.6596029334456,
                35.769982323655
              ],
              [
                -78.6595636754924,
                35.770168837049
              ],
              [
                -78.6595158702646,
                35.7703540204697
              ],
              [
                -78.6594595862639,
                35.7705376145093
              ],
              [
                -78.6593949019443,
                35.7707193606882
              ],
              [
                -78.6593219079096,
                35.7708990050654
              ],
              [
                -78.6592407069284,
                35.7710762946344
              ],
              [
                -78.6591514128178,
                35.7712509800234
              ],
              [
                -78.6590541504352,
                35.7714228172982
              ],
              [
                -78.6589490579105,
                35.7715915634623
              ],
              [
                -78.6588362810855,
                35.7717569836517
              ],
              [
                -78.6587159779687,
                35.7719188439372
              ],
              [
                -78.6585883198148,
                35.7720769176364
              ],
              [
                -78.6584534822884,
                35.7722309825856
              ],
              [
                -78.6583116587285,
                35.7723808229798
              ],
              [
                -78.6581630446722,
                35.7725262275264
              ],
              [
                -78.658007851112,
                35.7726669930881
              ],
              [
                -78.6578462945527,
                35.7728029219514
              ],
              [
                -78.6576786014317,
                35.7729338227401
              ],
              [
                -78.6575050092218,
                35.7730595113203
              ],
              [
                -78.6569694117657,
                35.7734329130929
              ],
              [
                -78.6568409755276,
                35.7733597654488
              ],
              [
                -78.6560632865405,
                35.773901933155
              ],
              [
                -78.6560395142368,
                35.7738439271972
              ],
              [
                -78.6560271377418,
                35.7738098103691
              ],
              [
                -78.6558924723225,
                35.7734803188534
              ],
              [
                -78.6558405995455,
                35.773384504713
              ],
              [
                -78.6557821062769,
                35.7732912578155
              ],
              [
                -78.6557171814854,
                35.7732008806384
              ],
              [
                -78.6556460384995,
                35.7731136685164
              ],
              [
                -78.6555689083947,
                35.7730299042151
              ],
              [
                -78.6554860410834,
                35.7729498615397
              ]
            ]
          ],
          [
            [
              [
                -78.6624972081797,
                35.777351389928
              ],
              [
                -78.6597778530335,
                35.7755896776681
              ],
              [
                -78.6597358947381,
                35.7756326864809
              ],
              [
                -78.6593773439636,
                35.7754175677697
              ],
              [
                -78.6589908019872,
                35.7752362252511
              ],
              [
                -78.6585453056419,
                35.7750760142639
              ],
              [
                -78.6585447435911,
                35.7750823437741
              ],
              [
                -78.6580986555944,
                35.7749562789494
              ],
              [
                -78.6570407297767,
                35.7746890245766
              ],
              [
                -78.6563484989407,
                35.7743132484181
              ],
              [
                -78.6563089439491,
                35.7742716674775
              ],
              [
                -78.6572683595115,
                35.7736028029431
              ],
              [
                -78.6571399227333,
                35.7735296556182
              ],
              [
                -78.6576357379563,
                35.7731839876434
              ],
              [
                -78.6578073268398,
                35.7730599526415
              ],
              [
                -78.6579733505695,
                35.7729309867011
              ],
              [
                -78.6581335971911,
                35.7727972550981
              ],
              [
                -78.6582878591562,
                35.772658928529
              ],
              [
                -78.6584359388374,
                35.7725161867323
              ],
              [
                -78.6585776463464,
                35.7723692112704
              ],
              [
                -78.6587128006098,
                35.772218192744
              ],
              [
                -78.6588412260811,
                35.772063323572
              ],
              [
                -78.658962759354,
                35.7719048034175
              ],
              [
                -78.6590772436475,
                35.7717428355671
              ],
              [
                -78.6591845321159,
                35.7715776287427
              ],
              [
                -78.6592844867544,
                35.7714093943944
              ],
              [
                -78.6593769783908,
                35.7712383485027
              ],
              [
                -78.659461891106,
                35.7710647124925
              ],
              [
                -78.6595391123023,
                35.770888707797
              ],
              [
                -78.6596085459558,
                35.7707105604011
              ],
              [
                -78.6596701004546,
                35.7705304999065
              ],
              [
                -78.6597236985597,
                35.7703487577562
              ],
              [
                -78.6597692707723,
                35.7701655663149
              ],
              [
                -78.6598067575307,
                35.7699811624806
              ],
              [
                -78.6598361125506,
                35.7697957822852
              ],
              [
                -78.6598572972868,
                35.7696096626823
              ],
              [
                -78.6598702853423,
                35.7694230451644
              ],
              [
                -78.6600196135354,
                35.7662826982466
              ],
              [
                -78.6606001546739,
                35.7663010328819
              ],
              [
                -78.6619822054636,
                35.7660853984423
              ],
              [
                -78.6624081740808,
                35.7660625767863
              ],
              [
                -78.6626820522582,
                35.7659130142258
              ],
              [
                -78.6627941622053,
                35.7660438594924
              ],
              [
                -78.6629996097171,
                35.7662187461473
              ],
              [
                -78.6630973414302,
                35.7663388919381
              ],
              [
                -78.6634094967067,
                35.7668619672104
              ],
              [
                -78.6636020346194,
                35.7671565212566
              ],
              [
                -78.6638747627898,
                35.7675758812258
              ],
              [
                -78.6640249795903,
                35.7677980752375
              ],
              [
                -78.6644960904075,
                35.7684445347389
              ],
              [
                -78.6646849754908,
                35.7688639150085
              ],
              [
                -78.6648733943549,
                35.7691602933458
              ],
              [
                -78.6651188089319,
                35.7700283085605
              ],
              [
                -78.6652070419665,
                35.7702762984339
              ],
              [
                -78.6650170659465,
                35.7703494598306
              ],
              [
                -78.6657575944037,
                35.7719585324059
              ],
              [
                -78.6659151436453,
                35.7721961191005
              ],
              [
                -78.6663063534368,
                35.7727074029488
              ],
              [
                -78.6664318553244,
                35.773148796584
              ],
              [
                -78.665879144103,
                35.7730312806647
              ],
              [
                -78.665862452187,
                35.7730815347625
              ],
              [
                -78.6652312838194,
                35.7729420177148
              ],
              [
                -78.6651323726106,
                35.7735917747987
              ],
              [
                -78.6653568597865,
                35.7746502779877
              ],
              [
                -78.6635627185071,
                35.7745861164169
              ],
              [
                -78.6632932194624,
                35.7761934644289
              ],
              [
                -78.6632790407717,
                35.7766050501183
              ],
              [
                -78.6632785025045,
                35.776613724123
              ],
              [
                -78.6632483276068,
                35.7771007184241
              ],
              [
                -78.6632091756513,
                35.777725769168
              ],
              [
                -78.6624972081797,
                35.777351389928
              ]
            ]
          ]
        ],
        "type": "MultiPolygon"
      },
      "id": 187,
      "properties": {
        "ADDRESS": "900 S Boylan Ave",
        "ALTERNATE_ADDRESS": "NA",
        "CAC": "Southwest",
        "CITY_COUNCIL_DISTRICT": "D",
        "CITY_LIMITS": 1,
        "DEVELOPED": "Developed",
        "ETJ": 1,
        "FEMA_LOT": 0,
        "FILE_NUMBER": "METRO-10",
        "GlobalID": "118368f1-d2aa-4d92-b891-6e15fc35b4c1",
        "ID_NUMBER": 11000,
        "INITIAL_AQUISITION_DATE": 1356652800000,
        "LAT": 35.76847,
        "LON": -78.6557,
        "LWCF": "No",
        "MAINTENANCE_DISTRICT": "Destination Parks",
        "MAP_ACRES": 307.97709349625825,
        "NAME": "Dix Park",
        "OBJECTID": 187,
        "OS_FACILITY_FEE_ZONE": "3",
        "PARCEL_COUNT": 3,
        "PARKID": 176,
        "PARK_TYPE": "Metro",
        "Shape__Area": 13415535.854736328,
        "Shape__Length": 24030.758309691486,
        "WEBSITE": "https://raleighnc.gov/places/dorothea-dix-park",
        "ZIP_CODE": 27603
      },
      "type": "Feature"
    }
  ],
  "type": "FeatureCollection"
}